start=new Date('2022-01-26T00:00:00.000Z').valueOf();
sats=[{"MEAN_MOTION_DOT":"-0.00000562","OBJECT_TYPE":"PAYLOAD","REV_AT_EPOCH":"4064","EPOCH":"2022-01-25T21:28:19.400736","MEAN_ELEMENT_THEORY":"SGP4","TLE_LINE1":"1 48401U 21038BA  22025.89466899 -.00000562  00000-0 -18855-4 0  9997","REF_FRAME":"TEME","LAUNCH_DATE":"2021-05-04","CENTER_NAME":"EARTH","NORAD_CAT_ID":"48401","APOAPSIS":"548.442","ECCENTRICITY":"0.00017870","BSTAR":"-0.00001885500000","INCLINATION":"53.0549","EPHEMERIS_TYPE":"0","CLASSIFICATION_TYPE":"U","SEMIMAJOR_AXIS":"6925.340","OBJECT_NAME":"STARLINK-2571","COUNTRY_CODE":"US","RA_OF_ASC_NODE":"252.4197","DECAY_DATE":null,"FILE":"3283711","RCS_SIZE":"LARGE","MEAN_MOTION":"15.06402877","ELEMENT_SET_NO":"999","PERIAPSIS":"545.967","GP_ID":"194643214","TLE_LINE2":"2 48401  53.0549 252.4197 0001787  63.2812 296.8360 15.06402877 40648","PERIOD":"95.592","ARG_OF_PERICENTER":"63.2812","TIME_SYSTEM":"UTC","SITE":"AFETR","MEAN_ANOMALY":"296.8360","MEAN_MOTION_DDOT":"0.0000000000000","OBJECT_ID":"2021-038BA"},{"MEAN_MOTION_DDOT":"0.0000000000000","MEAN_ANOMALY":"295.0005","OBJECT_ID":"2021-038BB","PERIOD":"95.593","TLE_LINE2":"2 48402  53.0539 252.3050 0002001  65.1192 295.0005 15.06390065 40650","SITE":"AFETR","ARG_OF_PERICENTER":"65.1192","TIME_SYSTEM":"UTC","GP_ID":"194643464","ELEMENT_SET_NO":"999","PERIAPSIS":"545.858","FILE":"3283711","MEAN_MOTION":"15.06390065","RCS_SIZE":"LARGE","COUNTRY_CODE":"US","DECAY_DATE":null,"RA_OF_ASC_NODE":"252.3050","NORAD_CAT_ID":"48402","APOAPSIS":"548.630","ECCENTRICITY":"0.00020010","OBJECT_NAME":"STARLINK-2560","BSTAR":"-0.00000192590000","INCLINATION":"53.0539","EPHEMERIS_TYPE":"0","CLASSIFICATION_TYPE":"U","SEMIMAJOR_AXIS":"6925.379","CENTER_NAME":"EARTH","MEAN_ELEMENT_THEORY":"SGP4","TLE_LINE1":"1 48402U 21038BB  22025.92142593 -.00000310  00000-0 -19259-5 0  9995","REF_FRAME":"TEME","OBJECT_TYPE":"PAYLOAD","REV_AT_EPOCH":"4065","MEAN_MOTION_DOT":"-0.00000310","EPOCH":"2022-01-25T22:06:51.200352","LAUNCH_DATE":"2021-05-04"},{"CENTER_NAME":"EARTH","REF_FRAME":"TEME","TLE_LINE1":"1 48403U 21038BC  22025.91774675  .00004717  00000-0  33521-3 0  9996","MEAN_ELEMENT_THEORY":"SGP4","EPOCH":"2022-01-25T22:01:33.319200","OBJECT_TYPE":"PAYLOAD","MEAN_MOTION_DOT":"0.00004717","REV_AT_EPOCH":"4065","LAUNCH_DATE":"2021-05-04","COUNTRY_CODE":"US","DECAY_DATE":null,"RA_OF_ASC_NODE":"252.3058","APOAPSIS":"548.545","ECCENTRICITY":"0.00020070","NORAD_CAT_ID":"48403","OBJECT_NAME":"STARLINK-2561","SEMIMAJOR_AXIS":"6925.290","BSTAR":"0.00033521000000","INCLINATION":"53.0538","EPHEMERIS_TYPE":"0","CLASSIFICATION_TYPE":"U","GP_ID":"194643716","PERIAPSIS":"545.765","ELEMENT_SET_NO":"999","FILE":"3283711","MEAN_MOTION":"15.06419073","RCS_SIZE":"LARGE","MEAN_MOTION_DDOT":"0.0000000000000","MEAN_ANOMALY":"292.0797","OBJECT_ID":"2021-038BC","PERIOD":"95.591","TLE_LINE2":"2 48403  53.0538 252.3058 0002007  68.0405 292.0797 15.06419073 40659","SITE":"AFETR","ARG_OF_PERICENTER":"68.0405","TIME_SYSTEM":"UTC"},{"COUNTRY_CODE":"US","RA_OF_ASC_NODE":"252.3370","DECAY_DATE":null,"APOAPSIS":"548.446","ECCENTRICITY":"0.00017690","NORAD_CAT_ID":"48404","SEMIMAJOR_AXIS":"6925.356","BSTAR":"0.00003126000000","CLASSIFICATION_TYPE":"U","INCLINATION":"53.0542","EPHEMERIS_TYPE":"0","OBJECT_NAME":"STARLINK-2593","CENTER_NAME":"EARTH","OBJECT_TYPE":"PAYLOAD","MEAN_MOTION_DOT":"0.00000184","REV_AT_EPOCH":"4065","EPOCH":"2022-01-25T21:56:15.088128","REF_FRAME":"TEME","TLE_LINE1":"1 48404U 21038BD  22025.91406352  .00000184  00000-0  31260-4 0  9994","MEAN_ELEMENT_THEORY":"SGP4","LAUNCH_DATE":"2021-05-04","MEAN_ANOMALY":"295.9639","MEAN_MOTION_DDOT":"0.0000000000000","OBJECT_ID":"2021-038BD","TLE_LINE2":"2 48404  53.0542 252.3370 0001769  64.1532 295.9639 15.06397580 40659","PERIOD":"95.592","ARG_OF_PERICENTER":"64.1532","TIME_SYSTEM":"UTC","SITE":"AFETR","PERIAPSIS":"545.996","ELEMENT_SET_NO":"999","GP_ID":"194644466","FILE":"3283711","RCS_SIZE":"LARGE","MEAN_MOTION":"15.06397580"},{"NORAD_CAT_ID":"48405","APOAPSIS":"548.443","ECCENTRICITY":"0.00017520","OBJECT_NAME":"STARLINK-2570","BSTAR":"-0.00014796000000","EPHEMERIS_TYPE":"0","INCLINATION":"53.0535","CLASSIFICATION_TYPE":"U","SEMIMAJOR_AXIS":"6925.365","COUNTRY_CODE":"US","DECAY_DATE":null,"RA_OF_ASC_NODE":"252.3554","TLE_LINE1":"1 48405U 21038BE  22025.91036651 -.00002484  00000-0 -14796-3 0  9997","MEAN_ELEMENT_THEORY":"SGP4","REF_FRAME":"TEME","REV_AT_EPOCH":"4065","OBJECT_TYPE":"PAYLOAD","MEAN_MOTION_DOT":"-0.00002484","EPOCH":"2022-01-25T21:50:55.666464","LAUNCH_DATE":"2021-05-04","CENTER_NAME":"EARTH","PERIOD":"95.592","TLE_LINE2":"2 48405  53.0535 252.3554 0001752  68.8400 291.2776 15.06394611 40656","SITE":"AFETR","ARG_OF_PERICENTER":"68.8400","TIME_SYSTEM":"UTC","MEAN_MOTION_DDOT":"0.0000000000000","MEAN_ANOMALY":"291.2776","OBJECT_ID":"2021-038BE","FILE":"3283711","MEAN_MOTION":"15.06394611","RCS_SIZE":"LARGE","GP_ID":"194642715","ELEMENT_SET_NO":"999","PERIAPSIS":"546.017"},{"MEAN_ANOMALY":"296.6279","MEAN_MOTION_DDOT":"0.0000000000000","OBJECT_ID":"2021-038BF","TLE_LINE2":"2 48406  53.0539 252.3601 0001818  63.4896 296.6279 15.06400168 40659","PERIOD":"95.592","TIME_SYSTEM":"UTC","ARG_OF_PERICENTER":"63.4896","SITE":"AFETR","ELEMENT_SET_NO":"999","PERIAPSIS":"545.954","GP_ID":"194642965","FILE":"3283711","RCS_SIZE":"LARGE","MEAN_MOTION":"15.06400168","COUNTRY_CODE":"US","RA_OF_ASC_NODE":"252.3601","DECAY_DATE":null,"NORAD_CAT_ID":"48406","ECCENTRICITY":"0.00018180","APOAPSIS":"548.472","INCLINATION":"53.0539","BSTAR":"0.00010061000000","EPHEMERIS_TYPE":"0","CLASSIFICATION_TYPE":"U","SEMIMAJOR_AXIS":"6925.348","OBJECT_NAME":"STARLINK-2568","CENTER_NAME":"EARTH","OBJECT_TYPE":"PAYLOAD","REV_AT_EPOCH":"4065","MEAN_MOTION_DOT":"0.00001217","EPOCH":"2022-01-25T21:45:37.355904","MEAN_ELEMENT_THEORY":"SGP4","TLE_LINE1":"1 48406U 21038BF  22025.90668236  .00001217  00000-0  10061-3 0  9999","REF_FRAME":"TEME","LAUNCH_DATE":"2021-05-04"},{"FILE":"3283711","MEAN_MOTION":"15.06400388","RCS_SIZE":"LARGE","GP_ID":"194644216","ELEMENT_SET_NO":"999","PERIAPSIS":"546.012","PERIOD":"95.592","TLE_LINE2":"2 48407  53.0526 252.3700 0001733  68.2884 291.8289 15.06400388 40643","SITE":"AFETR","ARG_OF_PERICENTER":"68.2884","TIME_SYSTEM":"UTC","MEAN_MOTION_DDOT":"0.0000000000000","MEAN_ANOMALY":"291.8289","OBJECT_ID":"2021-038BG","TLE_LINE1":"1 48407U 21038BG  22025.90300209  .00000650  00000-0  62517-4 0  9997","MEAN_ELEMENT_THEORY":"SGP4","REF_FRAME":"TEME","EPOCH":"2022-01-25T21:40:19.380576","OBJECT_TYPE":"PAYLOAD","MEAN_MOTION_DOT":"0.00000650","REV_AT_EPOCH":"4064","LAUNCH_DATE":"2021-05-04","CENTER_NAME":"EARTH","NORAD_CAT_ID":"48407","APOAPSIS":"548.413","ECCENTRICITY":"0.00017330","OBJECT_NAME":"STARLINK-2595","INCLINATION":"53.0526","BSTAR":"0.00006251700000","CLASSIFICATION_TYPE":"U","EPHEMERIS_TYPE":"0","SEMIMAJOR_AXIS":"6925.347","COUNTRY_CODE":"US","DECAY_DATE":null,"RA_OF_ASC_NODE":"252.3700"},{"GP_ID":"194643967","ELEMENT_SET_NO":"999","PERIAPSIS":"545.832","FILE":"3283711","MEAN_MOTION":"15.06409952","RCS_SIZE":"LARGE","MEAN_MOTION_DDOT":"0.0000000000000","MEAN_ANOMALY":"284.9078","OBJECT_ID":"2021-038BH","PERIOD":"95.592","TLE_LINE2":"2 48408  53.0539 252.3868 0001951  75.2127 284.9078 15.06409952 40648","SITE":"AFETR","TIME_SYSTEM":"UTC","ARG_OF_PERICENTER":"75.2127","CENTER_NAME":"EARTH","TLE_LINE1":"1 48408U 21038BH  22025.89930669  .00003304  00000-0  24054-3 0  9997","MEAN_ELEMENT_THEORY":"SGP4","REF_FRAME":"TEME","OBJECT_TYPE":"PAYLOAD","EPOCH":"2022-01-25T21:35:00.098016","MEAN_MOTION_DOT":"0.00003304","REV_AT_EPOCH":"4064","LAUNCH_DATE":"2021-05-04","COUNTRY_CODE":"US","DECAY_DATE":null,"RA_OF_ASC_NODE":"252.3868","NORAD_CAT_ID":"48408","APOAPSIS":"548.534","ECCENTRICITY":"0.00019510","OBJECT_NAME":"STARLINK-2592","EPHEMERIS_TYPE":"0","BSTAR":"0.00024054000000","INCLINATION":"53.0539","CLASSIFICATION_TYPE":"U","SEMIMAJOR_AXIS":"6925.318"},{"ELEMENT_SET_NO":"999","PERIAPSIS":"546.117","GP_ID":"194643215","RCS_SIZE":"LARGE","MEAN_MOTION":"15.06362870","FILE":"3283711","OBJECT_ID":"2021-038BJ","MEAN_ANOMALY":"295.5551","MEAN_MOTION_DDOT":"0.0000000000000","ARG_OF_PERICENTER":"64.5618","TIME_SYSTEM":"UTC","SITE":"AFETR","TLE_LINE2":"2 48409  53.0549 257.2902 0001747  64.5618 295.5551 15.06362870 40597","PERIOD":"95.594","CENTER_NAME":"EARTH","LAUNCH_DATE":"2021-05-04","MEAN_MOTION_DOT":"-0.00003916","OBJECT_TYPE":"PAYLOAD","EPOCH":"2022-01-25T22:08:53.134944","REV_AT_EPOCH":"4059","TLE_LINE1":"1 48409U 21038BJ  22025.92283721 -.00003916  00000-0 -24439-3 0  9990","MEAN_ELEMENT_THEORY":"SGP4","REF_FRAME":"TEME","RA_OF_ASC_NODE":"257.2902","DECAY_DATE":null,"COUNTRY_CODE":"US","BSTAR":"-0.00024439000000","EPHEMERIS_TYPE":"0","CLASSIFICATION_TYPE":"U","INCLINATION":"53.0549","SEMIMAJOR_AXIS":"6925.462","OBJECT_NAME":"STARLINK-2596","NORAD_CAT_ID":"48409","APOAPSIS":"548.537","ECCENTRICITY":"0.00017470"},{"GP_ID":"194643465","PERIAPSIS":"545.832","ELEMENT_SET_NO":"999","MEAN_MOTION":"15.06380937","RCS_SIZE":"LARGE","FILE":"3283711","OBJECT_ID":"2021-038BK","MEAN_MOTION_DDOT":"0.0000000000000","MEAN_ANOMALY":"221.8621","SITE":"AFETR","ARG_OF_PERICENTER":"79.8817","TIME_SYSTEM":"UTC","PERIOD":"95.593","TLE_LINE2":"2 48410  53.0551 207.3193 0002079  79.8817 221.8621 15.06380937  3581","CENTER_NAME":"EARTH","LAUNCH_DATE":"2021-05-04","REF_FRAME":"TEME","TLE_LINE1":"1 48410U 21038BK  22025.91667824  .00036969  00000-0  24890-2 0  9993","MEAN_ELEMENT_THEORY":"SGP4","OBJECT_TYPE":"PAYLOAD","MEAN_MOTION_DOT":"0.00036969","EPOCH":"2022-01-25T22:00:00.999936","REV_AT_EPOCH":"358","DECAY_DATE":null,"RA_OF_ASC_NODE":"207.3193","COUNTRY_CODE":"US","OBJECT_NAME":"STARLINK-2563","SEMIMAJOR_AXIS":"6925.407","INCLINATION":"53.0551","BSTAR":"0.00248900000000","CLASSIFICATION_TYPE":"U","EPHEMERIS_TYPE":"0","APOAPSIS":"548.712","ECCENTRICITY":"0.00020790","NORAD_CAT_ID":"48410"}];
